{"type": "FeatureCollection", "features": [ {"type": "Feature", "properties": {"norad_id": 30546, "name": "FENGYUN 1C DEB", "group": "fengyun-1c-debris", "lat": -2.3400717753668796, "lon": -154.40412789710163, "alt_km": 669.7249113717771, "timestamp": "2025-12-14T22:38:41.035180+00:00", "meta": {"OBJECT_NAME": "FENGYUN 1C DEB", "OBJECT_ID": "1999-025AKL", "EPOCH": "2025-12-14T02:20:44.913120", "MEAN_MOTION": 14.87184033, "ECCENTRICITY": 0.00925636, "INCLINATION": 98.9089, "RA_OF_ASC_NODE": 204.2804, "ARG_OF_PERICENTER": 158.1435, "MEAN_ANOMALY": 354.4544, "EPHEMERIS_TYPE": 0, "CLASSIFICATION_TYPE": "U", "NORAD_CAT_ID": 30546, "ELEMENT_SET_NO": 999, "REV_AT_EPOCH": 477, "BSTAR": 0.00090188939, "MEAN_MOTION_DOT": 8.712e-05, "MEAN_MOTION_DDOT": 0}, "tle": {"line1": "1 30546U 99025AKL 25348.09774205  .00008712  00000+0  90189-3 0  9996", "line2": "2 30546  98.9089 204.2804 0092563 158.1435 354.4544 14.87184033  4771"}}, "geometry": {"type": "Point", "coordinates": [-154.40412789710163, -2.3400717753668796]}}, {"type": "Feature", "properties": {"norad_id": 30547, "name": "FENGYUN 1C DEB", "group": "fengyun-1c-debris", "lat": 39.64482761033463, "lon": -175.4425760403863, "alt_km": 829.9267683361622, "timestamp": "2025-12-14T22:38:41.035191+00:00", "meta": {"OBJECT_NAME": "FENGYUN 1C DEB", "OBJECT_ID": "1999-025AKM", "EPOCH": "2025-12-14T03:01:16.383648", "MEAN_MOTION": 14.37753438, "ECCENTRICITY": 0.00952057, "INCLINATION": 98.9021, "RA_OF_ASC_NODE": 191.1729, "ARG_OF_PERICENTER": 213.3159, "MEAN_ANOMALY": 277.5165, "EPHEMERIS_TYPE": 0, "CLASSIFICATION_TYPE": "U", "NORAD_CAT_ID": 30547, "ELEMENT_SET_NO": 999, "REV_AT_EPOCH": 98742, "BSTAR": 0.00036438333, "MEAN_MOTION_DOT": 1.106e-05, "MEAN_MOTION_DDOT": 0}, "tle": {"line1": "1 30547U 99025AKM 25348.12588407  .00001106  00000+0  36438-3 0  9995", "line2": "2 30547  98.9021 191.1729 0095205 213.3159 277.5165 14.37753438987423"}}, "geometry": {"type": "Point", "coordinates": [-175.4425760403863, 39.64482761033463]}}, {"type": "Feature", "properties": {"norad_id": 30548, "name": "FENGYUN 1C DEB", "group": "fengyun-1c-debris", "lat": -28.953555210860564, "lon": 61.21830166093149, "alt_km": 832.1981493880612, "timestamp": "2025-12-14T22:38:41.035201+00:00", "meta": {"OBJECT_NAME": "FENGYUN 1C DEB", "OBJECT_ID": "1999-025AKN", "EPOCH": "2025-12-10T12:13:24.269952", "MEAN_MOTION": 14.26844945, "ECCENTRICITY": 0.00687565, "INCLINATION": 99.6812, "RA_OF_ASC_NODE": 241.7363, "ARG_OF_PERICENTER": 341.7334, "MEAN_ANOMALY": 143.2043, "EPHEMERIS_TYPE": 0, "CLASSIFICATION_TYPE": "U", "NORAD_CAT_ID": 30548, "ELEMENT_SET_NO": 999, "REV_AT_EPOCH": 14063, "BSTAR": 0.003249128, "MEAN_MOTION_DOT": 8.037e-05, "MEAN_MOTION_DDOT": 0}, "tle": {"line1": "1 30548U 99025AKN 25344.50930868  .00008037  00000+0  32491-2 0  9990", "line2": "2 30548  99.6812 241.7363 0068756 341.7334 143.2043 14.26844945140638"}}, "geometry": {"type": "Point", "coordinates": [61.21830166093149, -28.953555210860564]}}, {"type": "Feature", "properties": {"norad_id": 30549, "name": "FENGYUN 1C DEB", "group": "fengyun-1c-debris", "lat": 7.4862519169610815, "lon": -69.65838106259451, "alt_km": 852.7905701296895, "timestamp": "2025-12-14T22:38:41.035211+00:00", "meta": {"OBJECT_NAME": "FENGYUN 1C DEB", "OBJECT_ID": "1999-025AKP", "EPOCH": "2025-12-03T07:39:14.923872", "MEAN_MOTION": 13.98584639, "ECCENTRICITY": 0.0288262, "INCLINATION": 98.4796, "RA_OF_ASC_NODE": 98.4482, "ARG_OF_PERICENTER": 283.4344, "MEAN_ANOMALY": 73.4847, "EPHEMERIS_TYPE": 0, "CLASSIFICATION_TYPE": "U", "NORAD_CAT_ID": 30549, "ELEMENT_SET_NO": 999, "REV_AT_EPOCH": 95162, "BSTAR": 0.0024216, "MEAN_MOTION_DOT": 4.917e-05, "MEAN_MOTION_DDOT": 0}, "tle": {"line1": "1 30549U 99025AKP 25337.31892273  .00004917  00000+0  24216-2 0  9998", "line2": "2 30549  98.4796  98.4482 0288262 283.4344  73.4847 13.98584639951629"}}, "geometry": {"type": "Point", "coordinates": [-69.65838106259451, 7.4862519169610815]}}, {"type": "Feature", "properties": {"norad_id": 30550, "name": "FENGYUN 1C DEB", "group": "fengyun-1c-debris", "lat": 6.222173068311888, "lon": -116.7696176635855, "alt_km": 861.6011576988994, "timestamp": "2025-12-14T22:38:41.035221+00:00", "meta": {"OBJECT_NAME": "FENGYUN 1C DEB", "OBJECT_ID": "1999-025AKQ", "EPOCH": "2025-12-14T04:31:27.130944", "MEAN_MOTION": 14.02413993, "ECCENTRICITY": 0.01325916, "INCLINATION": 99.0534, "RA_OF_ASC_NODE": 243.4762, "ARG_OF_PERICENTER": 293.3428, "MEAN_ANOMALY": 221.8167, "EPHEMERIS_TYPE": 0, "CLASSIFICATION_TYPE": "U", "NORAD_CAT_ID": 30550, "ELEMENT_SET_NO": 999, "REV_AT_EPOCH": 95415, "BSTAR": 0.0030922089, "MEAN_MOTION_DOT": 5.089e-05, "MEAN_MOTION_DDOT": 0}, "tle": {"line1": "1 30550U 99025AKQ 25348.18850846  .00005089  00000+0  30922-2 0  9999", "line2": "2 30550  99.0534 243.4762 0132591 293.3428 221.8167 14.02413993954152"}}, "geometry": {"type": "Point", "coordinates": [-116.7696176635855, 6.222173068311888]}}, {"type": "Feature", "properties": {"norad_id": 30552, "name": "FENGYUN 1C DEB", "group": "fengyun-1c-debris", "lat": 67.46171783854786, "lon": 98.72685657602601, "alt_km": 713.7967655694802, "timestamp": "2025-12-14T22:38:41.035231+00:00", "meta": {"OBJECT_NAME": "FENGYUN 1C DEB", "OBJECT_ID": "1999-025AKS", "EPOCH": "2025-12-14T02:31:10.270272", "MEAN_MOTION": 14.54819297, "ECCENTRICITY": 0.00148691, "INCLINATION": 98.8339, "RA_OF_ASC_NODE": 119.8497, "ARG_OF_PERICENTER": 248.1445, "MEAN_ANOMALY": 111.8169, "EPHEMERIS_TYPE": 0, "CLASSIFICATION_TYPE": "U", "NORAD_CAT_ID": 30552, "ELEMENT_SET_NO": 999, "REV_AT_EPOCH": 97672, "BSTAR": 0.0033086442, "MEAN_MOTION_DOT": 0.00014191, "MEAN_MOTION_DDOT": 0}, "tle": {"line1": "1 30552U 99025AKS 25348.10497998  .00014191  00000+0  33086-2 0  9996", "line2": "2 30552  98.8339 119.8497 0014869 248.1445 111.8169 14.54819297976720"}}, "geometry": {"type": "Point", "coordinates": [98.72685657602601, 67.46171783854786]}}, {"type": "Feature", "properties": {"norad_id": 30553, "name": "FENGYUN 1C DEB", "group": "fengyun-1c-debris", "lat": -79.55071558424488, "lon": -156.577465427064, "alt_km": 667.9570239295163, "timestamp": "2025-12-14T22:38:41.035241+00:00", "meta": {"OBJECT_NAME": "FENGYUN 1C DEB", "OBJECT_ID": "1999-025AKT", "EPOCH": "2025-12-14T05:08:13.369632", "MEAN_MOTION": 14.72364376, "ECCENTRICITY": 0.00204655, "INCLINATION": 99.129, "RA_OF_ASC_NODE": 83.2854, "ARG_OF_PERICENTER": 146.8811, "MEAN_ANOMALY": 213.3679, "EPHEMERIS_TYPE": 0, "CLASSIFICATION_TYPE": "U", "NORAD_CAT_ID": 30553, "ELEMENT_SET_NO": 999, "REV_AT_EPOCH": 98495, "BSTAR": 0.0037312013, "MEAN_MOTION_DOT": 0.00023712, "MEAN_MOTION_DDOT": 0}, "tle": {"line1": "1 30553U 99025AKT 25348.21404363  .00023712  00000+0  37312-2 0  9998", "line2": "2 30553  99.1290  83.2854 0020465 146.8811 213.3679 14.72364376984953"}}, "geometry": {"type": "Point", "coordinates": [-156.577465427064, -79.55071558424488]}}, {"type": "Feature", "properties": {"norad_id": 30555, "name": "FENGYUN 1C DEB", "group": "fengyun-1c-debris", "lat": 3.5990325384998156, "lon": 41.894853965326135, "alt_km": 829.5040824177313, "timestamp": "2025-12-14T22:38:41.035251+00:00", "meta": {"OBJECT_NAME": "FENGYUN 1C DEB", "OBJECT_ID": "1999-025AKV", "EPOCH": "2025-12-14T02:38:55.480704", "MEAN_MOTION": 14.20816323, "ECCENTRICITY": 0.00425939, "INCLINATION": 98.7577, "RA_OF_ASC_NODE": 41.6249, "ARG_OF_PERICENTER": 267.4834, "MEAN_ANOMALY": 156.5895, "EPHEMERIS_TYPE": 0, "CLASSIFICATION_TYPE": "U", "NORAD_CAT_ID": 30555, "ELEMENT_SET_NO": 999, "REV_AT_EPOCH": 96955, "BSTAR": 0.0015857705, "MEAN_MOTION_DOT": 3.414e-05, "MEAN_MOTION_DDOT": 0}, "tle": {"line1": "1 30555U 99025AKV 25348.11036436  .00003414  00000+0  15858-2 0  9999", "line2": "2 30555  98.7577  41.6249 0042593 267.4834 156.5895 14.20816323969559"}}, "geometry": {"type": "Point", "coordinates": [41.894853965326135, 3.5990325384998156]}}, {"type": "Feature", "properties": {"norad_id": 30556, "name": "FENGYUN 1C DEB", "group": "fengyun-1c-debris", "lat": -4.209897831066958, "lon": -17.232349075314318, "alt_km": 920.2788596522951, "timestamp": "2025-12-14T22:38:41.035261+00:00", "meta": {"OBJECT_NAME": "FENGYUN 1C DEB", "OBJECT_ID": "1999-025AKW", "EPOCH": "2025-12-13T23:02:29.463936", "MEAN_MOTION": 14.01368518, "ECCENTRICITY": 0.00680282, "INCLINATION": 98.7817, "RA_OF_ASC_NODE": 341.1695, "ARG_OF_PERICENTER": 234.0611, "MEAN_ANOMALY": 202.371, "EPHEMERIS_TYPE": 0, "CLASSIFICATION_TYPE": "U", "NORAD_CAT_ID": 30556, "ELEMENT_SET_NO": 999, "REV_AT_EPOCH": 96274, "BSTAR": 0.00034242131, "MEAN_MOTION_DOT": 4.84e-06, "MEAN_MOTION_DDOT": 0}, "tle": {"line1": "1 30556U 99025AKW 25347.96006324  .00000484  00000+0  34242-3 0  9998", "line2": "2 30556  98.7817 341.1695 0068028 234.0611 202.3710 14.01368518962741"}}, "geometry": {"type": "Point", "coordinates": [-17.232349075314318, -4.209897831066958]}}, {"type": "Feature", "properties": {"norad_id": 30557, "name": "FENGYUN 1C DEB", "group": "fengyun-1c-debris", "lat": -13.683954265338096, "lon": -128.10584638835425, "alt_km": 819.3876117246054, "timestamp": "2025-12-14T22:38:41.035276+00:00", "meta": {"OBJECT_NAME": "FENGYUN 1C DEB", "OBJECT_ID": "1999-025AKX", "EPOCH": "2025-12-13T15:05:12.131232", "MEAN_MOTION": 14.10803776, "ECCENTRICITY": 0.00682403, "INCLINATION": 98.9203, "RA_OF_ASC_NODE": 52.7805, "ARG_OF_PERICENTER": 230.0302, "MEAN_ANOMALY": 129.4863, "EPHEMERIS_TYPE": 0, "CLASSIFICATION_TYPE": "U", "NORAD_CAT_ID": 30557, "ELEMENT_SET_NO": 999, "REV_AT_EPOCH": 96313, "BSTAR": 0.0018116485, "MEAN_MOTION_DOT": 3.271e-05, "MEAN_MOTION_DDOT": 0}, "tle": {"line1": "1 30557U 99025AKX 25347.62861263  .00003271  00000+0  18116-2 0  9991", "line2": "2 30557  98.9203  52.7805 0068240 230.0302 129.4863 14.10803776963132"}}, "geometry": {"type": "Point", "coordinates": [-128.10584638835425, -13.683954265338096]}}]}